ATLAS CENTAUR R/B       
1 06155U 72065B   26058.96374538  .00001467  00000+0  20293-3 0  9999
2 06155  35.0029   2.7489 0034426 287.8250  71.8697 14.77654271839821
SL-8 R/B                
1 08459U 75112B   26059.39079401  .00000226  00000+0  82951-4 0  9995
2 08459  74.0609  36.0171 0014654 132.9910 227.2476 14.38197223630534
SL-3 R/B                
1 10114U 77057B   26059.45933766  .00014078  00000+0  29833-3 0  9995
2 10114  97.5753 230.9768 0006554 323.3617  36.7183 15.45186417666902
SEASAT 1                
1 10967U 78064A   26059.36535738  .00000251  00000+0  10861-3 0  9996
2 10967 108.0133 105.9332 0002068 289.4485  70.6437 14.46151896505169
SL-14 R/B               
1 11267U 79011B   26059.39186484  .00000572  00000+0  53876-4 0  9996
2 11267  82.5220 105.3953 0017650  88.9585 271.3656 14.91895361527399
SL-8 R/B                
1 11574U 79089B   26059.45132776  .00000221  00000+0  74690-4 0  9992
2 11574  74.0676 108.1465 0017074 281.7402  78.1838 14.42343615434771
SL-14 R/B               
1 11672U 80005B   26059.19742826  .00000623  00000+0  60476-4 0  9998
2 11672  82.5162 316.2392 0015327 189.5544 170.5386 14.90917051475073
SL-8 R/B                
1 12139U 81003B   26059.39653343  .00016285  00000+0  42240-3 0  9992
2 12139  82.9403 298.6151 0262783 210.9135 147.6405 15.10565739313270
SL-3 R/B                
1 12465U 81046B   26059.43920854  .00012496  00000+0  29302-3 0  9994
2 12465  81.2322 300.8497 0020317  53.3761 306.9346 15.41712548437000
SL-3 R/B                
1 12904U 81103B   26059.49826096  .00005398  00000+0  24018-3 0  9997
2 12904  81.1565 224.2141 0012714 319.5024  40.5260 15.21241825971835
SL-3 R/B                
1 13068U 82013B   26059.44447987  .00005785  00000+0  25136-3 0  9995
2 13068  81.1765 171.6031 0022182 208.8369 151.1638 15.21901227402942
SL-3 R/B                
1 13154U 82039B   26059.51249312  .00002897  00000+0  17501-3 0  9997
2 13154  81.1581 226.5418 0029930 354.4058   5.6828 15.10016702380250
