CCSDS_OMM_VERS = 2.0
CREATION_DATE  = 
ORIGINATOR     = 

OBJECT_NAME    = ATLAS CENTAUR R/B
OBJECT_ID      = 1972-065B
CENTER_NAME    = EARTH
REF_FRAME      = TEME
TIME_SYSTEM    = UTC
MEAN_ELEMENT_THEORY = SGP/SGP4

EPOCH          = 2026-02-27T23:07:47.600832
MEAN_MOTION    = 14.77654271
ECCENTRICITY   = .0034426
INCLINATION    = 35.0029
RA_OF_ASC_NODE = 2.7489
ARG_OF_PERICENTER = 287.8250
MEAN_ANOMALY   = 71.8697

EPHEMERIS_TYPE = 0
CLASSIFICATION_TYPE = U
NORAD_CAT_ID   = 6155
ELEMENT_SET_NO = 999
REV_AT_EPOCH   = 83982
BSTAR          = .20293E-3
MEAN_MOTION_DOT = .1467E-4
MEAN_MOTION_DDOT = 0

CCSDS_OMM_VERS = 2.0
CREATION_DATE  = 
ORIGINATOR     = 

OBJECT_NAME    = SL-8 R/B
OBJECT_ID      = 1975-112B
CENTER_NAME    = EARTH
REF_FRAME      = TEME
TIME_SYSTEM    = UTC
MEAN_ELEMENT_THEORY = SGP/SGP4

EPOCH          = 2026-02-28T09:22:44.602464
MEAN_MOTION    = 14.38197223
ECCENTRICITY   = .0014654
INCLINATION    = 74.0609
RA_OF_ASC_NODE = 36.0171
ARG_OF_PERICENTER = 132.9910
MEAN_ANOMALY   = 227.2476

EPHEMERIS_TYPE = 0
CLASSIFICATION_TYPE = U
NORAD_CAT_ID   = 8459
ELEMENT_SET_NO = 999
REV_AT_EPOCH   = 63053
BSTAR          = .82951E-4
MEAN_MOTION_DOT = .226E-5
MEAN_MOTION_DDOT = 0

CCSDS_OMM_VERS = 2.0
CREATION_DATE  = 
ORIGINATOR     = 

OBJECT_NAME    = SL-3 R/B
OBJECT_ID      = 1977-057B
CENTER_NAME    = EARTH
REF_FRAME      = TEME
TIME_SYSTEM    = UTC
MEAN_ELEMENT_THEORY = SGP/SGP4

EPOCH          = 2026-02-28T11:01:26.773824
MEAN_MOTION    = 15.45186417
ECCENTRICITY   = .0006554
INCLINATION    = 97.5753
RA_OF_ASC_NODE = 230.9768
ARG_OF_PERICENTER = 323.3617
MEAN_ANOMALY   = 36.7183

EPHEMERIS_TYPE = 0
CLASSIFICATION_TYPE = U
NORAD_CAT_ID   = 10114
ELEMENT_SET_NO = 999
REV_AT_EPOCH   = 66690
BSTAR          = .29833E-3
MEAN_MOTION_DOT = .14078E-3
MEAN_MOTION_DDOT = 0

CCSDS_OMM_VERS = 2.0
CREATION_DATE  = 
ORIGINATOR     = 

OBJECT_NAME    = SEASAT 1
OBJECT_ID      = 1978-064A
CENTER_NAME    = EARTH
REF_FRAME      = TEME
TIME_SYSTEM    = UTC
MEAN_ELEMENT_THEORY = SGP/SGP4

EPOCH          = 2026-02-28T08:46:06.877632
MEAN_MOTION    = 14.46151896
ECCENTRICITY   = .0002068
INCLINATION    = 108.0133
RA_OF_ASC_NODE = 105.9332
ARG_OF_PERICENTER = 289.4485
MEAN_ANOMALY   = 70.6437

EPHEMERIS_TYPE = 0
CLASSIFICATION_TYPE = U
NORAD_CAT_ID   = 10967
ELEMENT_SET_NO = 999
REV_AT_EPOCH   = 50516
BSTAR          = .10861E-3
MEAN_MOTION_DOT = .251E-5
MEAN_MOTION_DDOT = 0

CCSDS_OMM_VERS = 2.0
CREATION_DATE  = 
ORIGINATOR     = 

OBJECT_NAME    = SL-14 R/B
OBJECT_ID      = 1979-011B
CENTER_NAME    = EARTH
REF_FRAME      = TEME
TIME_SYSTEM    = UTC
MEAN_ELEMENT_THEORY = SGP/SGP4

EPOCH          = 2026-02-28T09:24:17.122176
MEAN_MOTION    = 14.91895361
ECCENTRICITY   = .001765
INCLINATION    = 82.5220
RA_OF_ASC_NODE = 105.3953
ARG_OF_PERICENTER = 88.9585
MEAN_ANOMALY   = 271.3656

EPHEMERIS_TYPE = 0
CLASSIFICATION_TYPE = U
NORAD_CAT_ID   = 11267
ELEMENT_SET_NO = 999
REV_AT_EPOCH   = 52739
BSTAR          = .53876E-4
MEAN_MOTION_DOT = .572E-5
MEAN_MOTION_DDOT = 0

CCSDS_OMM_VERS = 2.0
CREATION_DATE  = 
ORIGINATOR     = 

OBJECT_NAME    = SL-8 R/B
OBJECT_ID      = 1979-089B
CENTER_NAME    = EARTH
REF_FRAME      = TEME
TIME_SYSTEM    = UTC
MEAN_ELEMENT_THEORY = SGP/SGP4

EPOCH          = 2026-02-28T10:49:54.718464
MEAN_MOTION    = 14.42343615
ECCENTRICITY   = .0017074
INCLINATION    = 74.0676
RA_OF_ASC_NODE = 108.1465
ARG_OF_PERICENTER = 281.7402
MEAN_ANOMALY   = 78.1838

EPHEMERIS_TYPE = 0
CLASSIFICATION_TYPE = U
NORAD_CAT_ID   = 11574
ELEMENT_SET_NO = 999
REV_AT_EPOCH   = 43477
BSTAR          = .7469E-4
MEAN_MOTION_DOT = .221E-5
MEAN_MOTION_DDOT = 0

CCSDS_OMM_VERS = 2.0
CREATION_DATE  = 
ORIGINATOR     = 

OBJECT_NAME    = SL-14 R/B
OBJECT_ID      = 1980-005B
CENTER_NAME    = EARTH
REF_FRAME      = TEME
TIME_SYSTEM    = UTC
MEAN_ELEMENT_THEORY = SGP/SGP4

EPOCH          = 2026-02-28T04:44:17.801664
MEAN_MOTION    = 14.90917051
ECCENTRICITY   = .0015327
INCLINATION    = 82.5162
RA_OF_ASC_NODE = 316.2392
ARG_OF_PERICENTER = 189.5544
MEAN_ANOMALY   = 170.5386

EPHEMERIS_TYPE = 0
CLASSIFICATION_TYPE = U
NORAD_CAT_ID   = 11672
ELEMENT_SET_NO = 999
REV_AT_EPOCH   = 47507
BSTAR          = .60476E-4
MEAN_MOTION_DOT = .623E-5
MEAN_MOTION_DDOT = 0

CCSDS_OMM_VERS = 2.0
CREATION_DATE  = 
ORIGINATOR     = 

OBJECT_NAME    = SL-8 R/B
OBJECT_ID      = 1981-003B
CENTER_NAME    = EARTH
REF_FRAME      = TEME
TIME_SYSTEM    = UTC
MEAN_ELEMENT_THEORY = SGP/SGP4

EPOCH          = 2026-02-28T09:31:00.488352
MEAN_MOTION    = 15.10565739
ECCENTRICITY   = .0262783
INCLINATION    = 82.9403
RA_OF_ASC_NODE = 298.6151
ARG_OF_PERICENTER = 210.9135
MEAN_ANOMALY   = 147.6405

EPHEMERIS_TYPE = 0
CLASSIFICATION_TYPE = U
NORAD_CAT_ID   = 12139
ELEMENT_SET_NO = 999
REV_AT_EPOCH   = 31327
BSTAR          = .4224E-3
MEAN_MOTION_DOT = .16285E-3
MEAN_MOTION_DDOT = 0

CCSDS_OMM_VERS = 2.0
CREATION_DATE  = 
ORIGINATOR     = 

OBJECT_NAME    = SL-3 R/B
OBJECT_ID      = 1981-046B
CENTER_NAME    = EARTH
REF_FRAME      = TEME
TIME_SYSTEM    = UTC
MEAN_ELEMENT_THEORY = SGP/SGP4

EPOCH          = 2026-02-28T10:32:27.617856
MEAN_MOTION    = 15.41712548
ECCENTRICITY   = .0020317
INCLINATION    = 81.2322
RA_OF_ASC_NODE = 300.8497
ARG_OF_PERICENTER = 53.3761
MEAN_ANOMALY   = 306.9346

EPHEMERIS_TYPE = 0
CLASSIFICATION_TYPE = U
NORAD_CAT_ID   = 12465
ELEMENT_SET_NO = 999
REV_AT_EPOCH   = 43700
BSTAR          = .29302E-3
MEAN_MOTION_DOT = .12496E-3
MEAN_MOTION_DDOT = 0

CCSDS_OMM_VERS = 2.0
CREATION_DATE  = 
ORIGINATOR     = 

OBJECT_NAME    = SL-3 R/B
OBJECT_ID      = 1981-103B
CENTER_NAME    = EARTH
REF_FRAME      = TEME
TIME_SYSTEM    = UTC
MEAN_ELEMENT_THEORY = SGP/SGP4

EPOCH          = 2026-02-28T11:57:29.746944
MEAN_MOTION    = 15.21241825
ECCENTRICITY   = .0012714
INCLINATION    = 81.1565
RA_OF_ASC_NODE = 224.2141
ARG_OF_PERICENTER = 319.5024
MEAN_ANOMALY   = 40.5260

EPHEMERIS_TYPE = 0
CLASSIFICATION_TYPE = U
NORAD_CAT_ID   = 12904
ELEMENT_SET_NO = 999
REV_AT_EPOCH   = 97183
BSTAR          = .24018E-3
MEAN_MOTION_DOT = .5398E-4
MEAN_MOTION_DDOT = 0

CCSDS_OMM_VERS = 2.0
CREATION_DATE  = 
ORIGINATOR     = 

OBJECT_NAME    = SL-3 R/B
OBJECT_ID      = 1982-013B
CENTER_NAME    = EARTH
REF_FRAME      = TEME
TIME_SYSTEM    = UTC
MEAN_ELEMENT_THEORY = SGP/SGP4

EPOCH          = 2026-02-28T10:40:03.060768
MEAN_MOTION    = 15.21901227
ECCENTRICITY   = .0022182
INCLINATION    = 81.1765
RA_OF_ASC_NODE = 171.6031
ARG_OF_PERICENTER = 208.8369
MEAN_ANOMALY   = 151.1638

EPHEMERIS_TYPE = 0
CLASSIFICATION_TYPE = U
NORAD_CAT_ID   = 13068
ELEMENT_SET_NO = 999
REV_AT_EPOCH   = 40294
BSTAR          = .25136E-3
MEAN_MOTION_DOT = .5785E-4
MEAN_MOTION_DDOT = 0

CCSDS_OMM_VERS = 2.0
CREATION_DATE  = 
ORIGINATOR     = 

OBJECT_NAME    = SL-3 R/B
OBJECT_ID      = 1982-039B
CENTER_NAME    = EARTH
REF_FRAME      = TEME
TIME_SYSTEM    = UTC
MEAN_ELEMENT_THEORY = SGP/SGP4

EPOCH          = 2026-02-28T12:17:59.405568
MEAN_MOTION    = 15.10016702
ECCENTRICITY   = .002993
INCLINATION    = 81.1581
RA_OF_ASC_NODE = 226.5418
ARG_OF_PERICENTER = 354.4058
MEAN_ANOMALY   = 5.6828

EPHEMERIS_TYPE = 0
CLASSIFICATION_TYPE = U
NORAD_CAT_ID   = 13154
ELEMENT_SET_NO = 999
REV_AT_EPOCH   = 38025
BSTAR          = .17501E-3
MEAN_MOTION_DOT = .2897E-4
MEAN_MOTION_DDOT = 0

